{
    "links": {
        "self": "http://www.neowsapp.com/rest/v1/neo/3802436?api_key=iIulBulltgU6a56xZRHN4H3l9WmuAYTsLGpBGhQ2"
    },
    "id": "3802436",
    "neo_reference_id": "3802436",
    "name": "(2018 GZ1)",
    "designation": "2018 GZ1",
    "nasa_jpl_url": "http://ssd.jpl.nasa.gov/sbdb.cgi?sstr=3802436",
    "absolute_magnitude_h": 24.7,
    "estimated_diameter": {
        "kilometers": {
            "estimated_diameter_min": 0.0305179233,
            "estimated_diameter_max": 0.0682401509
        },
        "meters": {
            "estimated_diameter_min": 30.5179232594,
            "estimated_diameter_max": 68.2401509401
        },
        "miles": {
            "estimated_diameter_min": 0.0189629525,
            "estimated_diameter_max": 0.0424024508
        },
        "feet": {
            "estimated_diameter_min": 100.1244233463,
            "estimated_diameter_max": 223.8850168104
        }
    },
    "is_potentially_hazardous_asteroid": false,
    "close_approach_data": [
        {
            "close_approach_date": "2018-03-25",
            "close_approach_date_full": "2018-Mar-25 06:35",
            "epoch_date_close_approach": 1521959700000,
            "relative_velocity": {
                "kilometers_per_second": "7.9306180111",
                "kilometers_per_hour": "28550.2248398603",
                "miles_per_hour": "17739.9994289676"
            },
            "miss_distance": {
                "astronomical": "0.0496057851",
                "lunar": "19.2966504039",
                "kilometers": "7420919.790637737",
                "miles": "4611145.7362332906"
            },
            "orbiting_body": "Earth"
        }
    ],
    "orbital_data": {
        "orbit_id": "3",
        "orbit_determination_date": "2018-04-21 06:39:08",
        "first_observation_date": "2018-04-10",
        "last_observation_date": "2018-04-21",
        "data_arc_in_days": 11,
        "observations_used": 46,
        "orbit_uncertainty": "8",
        "minimum_orbit_intersection": ".0194245",
        "jupiter_tisserand_invariant": "3.684",
        "epoch_osculation": "2458221.5",
        "eccentricity": ".4931546811471972",
        "semi_major_axis": "1.991349873587387",
        "inclination": "5.637296276013456",
        "ascending_node_longitude": "173.6500017623433",
        "orbital_period": "1026.407420443606",
        "perihelion_distance": "1.009306361625888",
        "perihelion_argument": "349.4580994193051",
        "aphelion_distance": "2.973393385548887",
        "perihelion_time": "2458186.381568734995",
        "mean_anomaly": "12.31736540830711",
        "mean_motion": ".3507379163767256",
        "equinox": "J2000",
        "orbit_class": {
            "orbit_class_type": "APO",
            "orbit_class_description": "Near-Earth asteroid orbits which cross the Earth’s orbit similar to that of 1862 Apollo",
            "orbit_class_range": "a (semi-major axis) > 1.0 AU; q (perihelion) < 1.017 AU"
        }
    },
    "is_sentry_object": false
}